[{"OBJECT_NAME":"KUIPER-00012","OBJECT_ID":"2025-088E","EPOCH":"2026-03-09T07:27:05.838336","MEAN_MOTION":14.79920319,"ECCENTRICITY":5.889e-5,"INCLINATION":51.9012,"RA_OF_ASC_NODE":77.2556,"ARG_OF_PERICENTER":63.3583,"MEAN_ANOMALY":296.744,"EPHEMERIS_TYPE":0,"CLASSIFICATION_TYPE":"U","NORAD_CAT_ID":63728,"ELEMENT_SET_NO":999,"REV_AT_EPOCH":4786,"BSTAR":0.00051078078,"MEAN_MOTION_DOT":3.674e-5,"MEAN_MOTION_DDOT":0},{"OBJECT_NAME":"BASIL","OBJECT_ID":"2025-185E","EPOCH":"2026-03-09T17:13:07.241088","MEAN_MOTION":14.77353126,"ECCENTRICITY":0.00114241,"INCLINATION":97.9635,"RA_OF_ASC_NODE":153.1696,"ARG_OF_PERICENTER":56.4063,"MEAN_ANOMALY":303.8236,"EPHEMERIS_TYPE":0,"CLASSIFICATION_TYPE":"U","NORAD_CAT_ID":65301,"ELEMENT_SET_NO":999,"REV_AT_EPOCH":2914,"BSTAR":0.00086699365,"MEAN_MOTION_DOT":6.12e-5,"MEAN_MOTION_DDOT":0}]
